GLOBALSTAR M023 [+]     
1 25621U 99004A   23322.42556562 -.00000085  00000+0  10206-3 0  9990
2 25621  52.0132   9.5959 0009469 290.6975  82.6168 12.62448470142886
GLOBALSTAR M040 [-]     
1 25622U 99004B   23322.41583457 -.00000049  00000+0  30720-3 0  9996
2 25622  51.9942  12.9386 0000686 178.4917 194.4496 12.61959704142430
GLOBALSTAR M036 [-]     
1 25623U 99004C   23322.70915741  .00000006  00000+0  12968-2 0  9999
2 25623  51.9979 319.7284 0011334  30.0335 140.6907 11.86560500110528
GLOBALSTAR M038 [-]     
1 25624U 99004D   23322.35198981 -.00000064  00000+0  25802-3 0  9997
2 25624  51.9976 292.7310 0001631 308.0366 199.1598 12.32487955131248
GLOBALSTAR M022 [-]     
1 25649U 99012A   23322.52125200 -.00000102  00000+0 -18760-3 0  9995
2 25649  52.0051  58.5020 0003342 112.4291 259.9268 12.02472082107000
GLOBALSTAR M041 [-]     
1 25650U 99012B   23322.62467082 -.00000032  00000+0  69392-3 0  9993
2 25650  52.0024 282.0978 0001592 272.8249  87.2406 11.96648133109504
GLOBALSTAR M046 [-]     
1 25651U 99012C   23322.38332375 -.00000189  00000+0 -11033-2 0  9995
2 25651  52.0082  30.0657 0002504 172.2835 267.7812 12.09379166113875
GLOBALSTAR M037 [+]     
1 25652U 99012D   23322.25585146 -.00000079  00000+0  13730-3 0  9992
2 25652  51.9979 140.9533 0001914  23.7741 147.2326 12.62389103138402
